NORAD_CAT_ID,OBJECT_NAME,OBJECT_TYPE,EPOCH,MEAN_MOTION,ECCENTRICITY,INCLINATION,RA_OF_ASC_NODE,ARG_OF_PERICENTER,MEAN_ANOMALY,BSTAR,MEAN_MOTION_DOT,MEAN_MOTION_DDOT,TLE_LINE0,TLE_LINE1,TLE_LINE2,SEMIMAJOR_AXIS,PERIOD,APOGEE,PERIGEE,DECAYED
53606.0,STARLINK-4590,PAYLOAD,2022-11-22 00:00:00,15.08858736,0.0001894,53.2152,237.7978,44.2451,82.8099,-0.00068187,-0.0001113,0.0,0 STARLINK-4590,1 53606U 22104U   22326.00001157 -.00011130  00000-0 -68187-3 0  9999,2 53606  53.2152 237.7978 0001894  44.2451  82.8099 15.08858736  1306,6917.823,95.436,540.998,538.378,0.0
53606.0,STARLINK-4590,PAYLOAD,2022-11-22 14:00:01,15.08825481,0.0001720999999999,53.2154,235.1778,45.1502,12.3013,0.0017324,0.0002738,0.0,0 STARLINK-4590,1 53606U 22104U   22326.58335648  .00027380  00000-0  17324-2 0  9995,2 53606  53.2154 235.1778 0001721  45.1502  12.3013 15.08825481  1309,6917.925,95.438,540.98,538.599,0.0
53606.0,STARLINK-4590,PAYLOAD,2022-11-22 22:00:00,15.08846263,0.0001883,53.2155,233.6824,46.5972,22.3783,-0.0024299,-0.0003876,0.0,0 STARLINK-4590,1 53606U 22104U   22326.91667824 -.00038760  00000-0 -24299-2 0  9991,2 53606  53.2155 233.6824 0001883  46.5972  22.3783 15.08846263  1306,6917.861,95.437,541.029,538.424,0.0
53606.0,STARLINK-4590,PAYLOAD,2022-11-23 08:00:01,15.08840817,0.0001976,53.2151,231.8123,44.502,128.94899999999998,-0.00077356,-0.00012579,0.0,0 STARLINK-4590,1 53606U 22104U   22327.33334491 -.00012579  00000-0 -77356-3 0  9992,2 53606  53.2151 231.8123 0001976  44.5020 128.9490 15.08840817 13545,6917.878000000002,95.438,541.11,538.376,0.0
53606.0,STARLINK-4590,PAYLOAD,2022-11-23 14:00:01,15.08813685,0.0001805,53.2151,230.6888,49.0234,43.1299,0.0030045,0.00047819,0.0,0 STARLINK-4590,1 53606U 22104U   22327.58334491  .00047819  00000-0  30045-2 0  9995,2 53606  53.2151 230.6888 0001805  49.0234  43.1299 15.08813685  1307,6917.9609999999975,95.439,541.075,538.577,0.0
53606.0,STARLINK-4590,PAYLOAD,2022-11-23 22:00:00,15.08858004,0.0001924,53.2151,229.1936,48.5567,55.1771,-0.0015463,-0.00024826,0.0,0 STARLINK-4590,1 53606U 22104U   22327.91667824 -.00024826  00000-0 -15463-2 0  9993,2 53606  53.2151 229.1936 0001924  48.5567  55.1771 15.08858004  1301,6917.825,95.436,541.021,538.359,0.0
53606.0,STARLINK-4590,PAYLOAD,2022-11-24 08:00:01,15.08860428,0.0001925,53.2145,227.3232,45.3483,162.8905,-0.0033431999999999,-0.00053134,0.0,0 STARLINK-4590,1 53606U 22104U   22328.33334491 -.00053134  00000-0 -33432-2 0  9991,2 53606  53.2145 227.3232 0001925  45.3483 162.8905 15.08860428 13699,6917.818,95.436,541.015,538.351,0.0
53606.0,STARLINK-4590,PAYLOAD,2022-11-24 14:00:01,15.08807388,0.0001753,53.2144,226.1999,49.0581,77.8897,0.0028846,0.00045879,0.0,0 STARLINK-4590,1 53606U 22104U   22328.58334491  .00045879  00000-0  28846-2 0  9996,2 53606  53.2144 226.1999 0001753  49.0581  77.8897 15.08807388  1300,6917.98,95.44,541.058,538.632,0.0
53606.0,STARLINK-4590,PAYLOAD,2022-11-24 22:00:00,15.08847899,0.0001896,53.2142,224.7048,48.2833,90.2385,-0.001426,-0.00022917,0.0,0 STARLINK-4590,1 53606U 22104U   22328.91667824 -.00022917  00000-0 -14260-2 0  9997,2 53606  53.2142 224.7048 0001896  48.2833  90.2385 15.08847899 13783,6917.856,95.437,541.033,538.41,0.0
53606.0,STARLINK-4590,PAYLOAD,2022-11-25 14:00:01,15.08840936,0.0001781999999999,53.2134,221.7108,50.5386,111.1857,0.00021604,3.152e-05,0.0,0 STARLINK-4590,1 53606U 22104U   22329.58334491  .00003152  00000-0  21604-3 0  9991,2 53606  53.2134 221.7108 0001782  50.5386 111.1857 15.08840936 13884,6917.878000000002,95.437,540.975,538.51,0.0
53606.0,STARLINK-4590,PAYLOAD,2022-11-26 00:00:00,15.08833918,0.0001954,53.2139,219.842,46.5762,219.6519,0.00050692,7.787e-05,0.0,0 STARLINK-4590,1 53606U 22104U   22330.00001157  .00007787  00000-0  50692-3 0  9997,2 53606  53.2139 219.8420 0001954  46.5762 219.6519 15.08833918  1303,6917.899,95.438,541.116,538.4119999999998,0.0
53606.0,STARLINK-4590,PAYLOAD,2022-11-26 14:00:01,15.08845218,0.0001869,53.2146,217.2213,51.646,144.8813,0.0001395999999999,1.935e-05,0.0,0 STARLINK-4590,1 53606U 22104U   22330.58334491  .00001935  00000-0  13960-3 0  9996,2 53606  53.2146 217.2213 0001869  51.6460 144.8813 15.08845218  1302,6917.864000000001,95.437,541.0219999999998,538.436,0.0
53606.0,STARLINK-4590,PAYLOAD,2022-11-26 22:00:00,15.08851567,0.0002053,53.2147,215.7264,50.1024,158.0285,-0.0030708,-0.00048846,0.0,0 STARLINK-4590,1 53606U 22104U   22330.91667824 -.00048846  00000-0 -30708-2 0  9994,2 53606  53.2147 215.7264 0002053  50.1024 158.0285 15.08851567 14081,6917.845,95.437,541.13,538.29,0.0
53606.0,STARLINK-4590,PAYLOAD,2022-11-27 14:00:01,15.08801983,0.0001952,53.2146,212.732,51.9735,179.3231,0.0028266,0.00044938,0.0,0 STARLINK-4590,1 53606U 22104U   22331.58334491  .00044938  00000-0  28266-2 0  9991,2 53606  53.2146 212.7320 0001952  51.9735 179.3231 15.08801983 14180,6917.996999999999,95.44,541.212,538.511,0.0
53606.0,STARLINK-4590,PAYLOAD,2022-11-27 22:00:00,15.08832802,0.0002132,53.2147,211.2372,49.5322,193.3336,-0.00068478,-0.00011168,0.0,0 STARLINK-4590,1 53606U 22104U   22331.91667824 -.00011168  00000-0 -68478-3 0  9998,2 53606  53.2147 211.2372 0002132  49.5322 193.3336 15.08832802  1304,6917.901999999999,95.438,541.242,538.2919999999998,0.0
53606.0,STARLINK-4590,PAYLOAD,2022-11-28 06:00:00,15.08855411,0.0002123,53.2148,209.7407,47.4238,207.0197,-0.0020629,-0.00032984,0.0,0 STARLINK-4590,1 53606U 22104U   22332.25001157 -.00032984  00000-0 -20629-2 0  9991,2 53606  53.2148 209.7407 0002123  47.4238 207.0197 15.08855411 14289,6917.833000000001,95.437,541.1669999999998,538.23,0.0
53606.0,STARLINK-4590,PAYLOAD,2022-11-28 22:00:01,15.08828094,0.0002154,53.2152,206.7479,48.6321,229.0538,-0.00056738,-9.304e-05,0.0,0 STARLINK-4590,1 53606U 22104U   22332.91668981 -.00009304  00000-0 -56738-3 0  9999,2 53606  53.2152 206.7479 0002154  48.6321 229.0538 15.08828094  1309,6917.917,95.438,541.2719999999998,538.2919999999998,0.0
53606.0,STARLINK-4590,PAYLOAD,2022-11-29 06:00:00,15.08846917,0.0002146,53.2153,205.2513,47.4018,241.7947,-0.0013039,-0.00020984,0.0,0 STARLINK-4590,1 53606U 22104U   22333.25001157 -.00020984  00000-0 -13039-2 0  9996,2 53606  53.2153 205.2513 0002146  47.4018 241.7947 15.08846917 14431,6917.859,95.437,541.2090000000002,538.24,0.0
53606.0,STARLINK-4590,PAYLOAD,2022-11-29 14:00:01,15.08821223,0.0002048,53.2157,203.7534,53.3582,247.4991,0.0027528,0.00043773,0.0,0 STARLINK-4590,1 53606U 22104U   22333.58335648  .00043773  00000-0  27528-2 0  9994,2 53606  53.2157 203.7534 0002048  53.3582 247.4991 15.08821223  1301,6917.938,95.439,541.22,538.386,0.0
53606.0,STARLINK-4590,PAYLOAD,2022-11-29 22:00:00,15.08848352,0.0002216,53.2158,202.2587,49.8147,262.5727,-0.00040626,-6.75e-05,0.0,0 STARLINK-4590,1 53606U 22104U   22333.91667824 -.00006750  00000-0 -40626-3 0  9996,2 53606  53.2158 202.2587 0002216  49.8147 262.5727 15.08848352 14545,6917.855,95.437,541.253,538.187,0.0
53606.0,STARLINK-4590,PAYLOAD,2022-11-30 14:00:01,15.08815323,0.0001965,53.2161,199.2643,53.8754,281.7855,0.0026775,0.00042554,0.0,0 STARLINK-4590,1 53606U 22104U   22334.58335648  .00042554  00000-0  26775-2 0  9994,2 53606  53.2161 199.2643 0001965  53.8754 281.7855 15.08815323  1303,6917.956,95.439,541.18,538.461,0.0
53606.0,STARLINK-4590,PAYLOAD,2022-11-30 22:00:00,15.08851765,0.0002087,53.2168,197.7708,51.401,295.7794,-0.0024878,-0.00039678,0.0,0 STARLINK-4590,1 53606U 22104U   22334.91667824 -.00039678  00000-0 -24878-2 0  9992,2 53606  53.2168 197.7708 0002087  51.4010 295.7794 15.08851765  1307,6917.844,95.437,541.153,538.266,0.0
53606.0,STARLINK-4590,PAYLOAD,2022-12-01 06:00:00,15.08856223,0.0002104,53.216,196.2729,48.9683,309.7942,-0.0019969,-0.00031943,0.0,0 STARLINK-4590,1 53606U 22104U   22335.25001157 -.00031943  00000-0 -19969-2 0  9993,2 53606  53.2160 196.2729 0002104  48.9683 309.7942 15.08856223 14740,6917.831,95.437,541.151,538.24,0.0
53606.0,STARLINK-4590,PAYLOAD,2022-12-01 14:00:01,15.08835562,0.0001997,53.2162,194.7754,55.6424,314.7279,0.0024238,0.00038494,0.0,0 STARLINK-4590,1 53606U 22104U   22335.58334491  .00038494  00000-0  24238-2 0  9990,2 53606  53.2162 194.7754 0001997  55.6424 314.7279 15.08835562  1300,6917.894,95.438,541.14,538.377,0.0
53606.0,STARLINK-4590,PAYLOAD,2022-12-01 22:00:00,15.08857197,0.0002156,53.216,193.2808,51.0963,330.8768,-0.0010234,-0.00016547,0.0,0 STARLINK-4590,1 53606U 22104U   22335.91667824 -.00016547  00000-0 -10234-2 0  9994,2 53606  53.2160 193.2808 0002156  51.0963 330.8768 15.08857197 14841,6917.828,95.436,541.184,538.201,0.0
53606.0,STARLINK-4590,PAYLOAD,2022-12-02 14:00:01,15.08824667,0.000195,53.2157,190.2864,56.0006,349.1767,0.0018282,0.00028916,0.0,0 STARLINK-4590,1 53606U 22104U   22336.58334491  .00028916  00000-0  18282-2 0  9991,2 53606  53.2157 190.2864 0001950  56.0006 349.1767 15.08824667  1305,6917.927,95.439,541.141,538.443,0.0
53606.0,STARLINK-4590,PAYLOAD,2022-12-02 22:00:00,15.08833939,0.0002121,53.2155,188.7919,51.4395,5.3278,-6.162e-05,-1.269e-05,0.0,0 STARLINK-4590,1 53606U 22104U   22336.91667824 -.00001269  00000-0 -61620-4 0  9997,2 53606  53.2155 188.7919 0002121  51.4395   5.3278 15.08833939  1307,6917.899,95.438,541.231,538.297,0.0
53606.0,STARLINK-4590,PAYLOAD,2022-12-03 06:00:00,15.08863736,0.0002023,53.2152,187.2945,51.0717,17.28,-0.0048997,-0.00077481,0.0,0 STARLINK-4590,1 53606U 22104U   22337.25001157 -.00077481  00000-0 -48997-2 0  9995,2 53606  53.2152 187.2945 0002023  51.0717  17.2800 15.08863736 15049,6917.808000000001,95.436,541.072,538.273,0.0
53606.0,STARLINK-4590,PAYLOAD,2022-12-03 14:00:01,15.08810955,0.0001927,53.2152,185.7974,55.9418,23.9989,0.0012445,0.00019558,0.0,0 STARLINK-4590,1 53606U 22104U   22337.58334491  .00019558  00000-0  12445-2 0  9999,2 53606  53.2152 185.7974 0001927  55.9418  23.9989 15.08810955  1308,6917.969,95.439,541.1669999999998,538.501,0.0
